SL-14 R/B               
1 21423U 91042B   26007.84832609  .00000522  00000+0  62965-4 0  9993
2 21423  82.4938 277.2433 0018590  81.6733 278.6588 14.81768553844061
ERS-1                   
1 21574U 91050A   26007.80474757  .00000430  00000+0  15233-3 0  9994
2 21574  98.7896  24.5107 0032374  24.6854 335.5874 14.39390746806976
ARIANE 40 R/B           
1 21610U 91050F   26007.72298725  .00000400  00000+0  13228-3 0  9994
2 21610  98.2125  62.2112 0002056 250.7568 109.3400 14.42839312810204
INTERCOSMOS 25          
1 21819U 91086A   26007.64228723  .00001559  00000+0  31022-3 0  9994
2 21819  82.6086 346.9062 1485936 248.5269  95.1272 12.11834354489295
SL-8 R/B                
1 21876U 92008B   26007.85598431  .00000126  00000+0  11380-3 0  9995
2 21876  82.9286 313.0224 0033661 306.2211 106.8419 13.75965192701050
SL-8 R/B                
1 21938U 92020B   26007.79909824  .00000163  00000+0  15244-3 0  9997
2 21938  82.9291 198.9655 0030166 107.1430 263.7740 13.75535469692768
USA 81                  
1 21949U 92023A   26007.81217019  .00000250  00000+0  85106-4 0  9995
2 21949  85.0094 166.5398 0001326 114.8367 245.2963 14.32339518 86074
COSMOS 2219             
1 22219U 92076A   26007.82733350  .00000203  00000+0  13124-3 0  9994
2 22219  71.0611 145.2992 0020302 290.8727  69.0222 14.14079520709772
SL-16 R/B               
1 22220U 92076B   26007.84050002  .00000147  00000+0  97012-4 0  9990
2 22220  71.0013 316.5504 0013434 197.9743 228.9515 14.16845949713218
COSMOS 2221             
1 22236U 92080A   26007.43853502  .00002440  00000+0  21540-3 0  9993
2 22236  82.5055 337.7245 0015825  43.7336 316.5136 14.95894676771638
SL-16 R/B               
1 22285U 92093B   26007.60962074  .00000003  00000+0  25669-4 0  9995
2 22285  71.0213 132.4909 0003245   7.5418 352.5753 14.15433882704518
COSMOS 2228             
1 22286U 92094A   26007.82912168  .00002266  00000+0  19461-3 0  9995
2 22286  82.5193 295.5720 0018912 142.1333 218.1224 14.96881042766954
