CCSDS_OMM_VERS = 2.0
CREATION_DATE  = 
ORIGINATOR     = 

OBJECT_NAME    = SL-14 R/B
OBJECT_ID      = 1991-042B
CENTER_NAME    = EARTH
REF_FRAME      = TEME
TIME_SYSTEM    = UTC
MEAN_ELEMENT_THEORY = SGP/SGP4

EPOCH          = 2026-01-07T20:21:35.374176
MEAN_MOTION    = 14.81768553
ECCENTRICITY   = .001859
INCLINATION    = 82.4938
RA_OF_ASC_NODE = 277.2433
ARG_OF_PERICENTER = 81.6733
MEAN_ANOMALY   = 278.6588

EPHEMERIS_TYPE = 0
CLASSIFICATION_TYPE = U
NORAD_CAT_ID   = 21423
ELEMENT_SET_NO = 999
REV_AT_EPOCH   = 84406
BSTAR          = .62965E-4
MEAN_MOTION_DOT = .522E-5
MEAN_MOTION_DDOT = 0

CCSDS_OMM_VERS = 2.0
CREATION_DATE  = 
ORIGINATOR     = 

OBJECT_NAME    = ERS-1
OBJECT_ID      = 1991-050A
CENTER_NAME    = EARTH
REF_FRAME      = TEME
TIME_SYSTEM    = UTC
MEAN_ELEMENT_THEORY = SGP/SGP4

EPOCH          = 2026-01-07T19:18:50.190048
MEAN_MOTION    = 14.39390746
ECCENTRICITY   = .0032374
INCLINATION    = 98.7896
RA_OF_ASC_NODE = 24.5107
ARG_OF_PERICENTER = 24.6854
MEAN_ANOMALY   = 335.5874

EPHEMERIS_TYPE = 0
CLASSIFICATION_TYPE = U
NORAD_CAT_ID   = 21574
ELEMENT_SET_NO = 999
REV_AT_EPOCH   = 80697
BSTAR          = .15233E-3
MEAN_MOTION_DOT = .43E-5
MEAN_MOTION_DDOT = 0

CCSDS_OMM_VERS = 2.0
CREATION_DATE  = 
ORIGINATOR     = 

OBJECT_NAME    = ARIANE 40 R/B
OBJECT_ID      = 1991-050F
CENTER_NAME    = EARTH
REF_FRAME      = TEME
TIME_SYSTEM    = UTC
MEAN_ELEMENT_THEORY = SGP/SGP4

EPOCH          = 2026-01-07T17:21:06.098400
MEAN_MOTION    = 14.42839312
ECCENTRICITY   = .0002056
INCLINATION    = 98.2125
RA_OF_ASC_NODE = 62.2112
ARG_OF_PERICENTER = 250.7568
MEAN_ANOMALY   = 109.3400

EPHEMERIS_TYPE = 0
CLASSIFICATION_TYPE = U
NORAD_CAT_ID   = 21610
ELEMENT_SET_NO = 999
REV_AT_EPOCH   = 81020
BSTAR          = .13228E-3
MEAN_MOTION_DOT = .4E-5
MEAN_MOTION_DDOT = 0

CCSDS_OMM_VERS = 2.0
CREATION_DATE  = 
ORIGINATOR     = 

OBJECT_NAME    = INTERCOSMOS 25
OBJECT_ID      = 1991-086A
CENTER_NAME    = EARTH
REF_FRAME      = TEME
TIME_SYSTEM    = UTC
MEAN_ELEMENT_THEORY = SGP/SGP4

EPOCH          = 2026-01-07T15:24:53.616672
MEAN_MOTION    = 12.11834354
ECCENTRICITY   = .1485936
INCLINATION    = 82.6086
RA_OF_ASC_NODE = 346.9062
ARG_OF_PERICENTER = 248.5269
MEAN_ANOMALY   = 95.1272

EPHEMERIS_TYPE = 0
CLASSIFICATION_TYPE = U
NORAD_CAT_ID   = 21819
ELEMENT_SET_NO = 999
REV_AT_EPOCH   = 48929
BSTAR          = .31022E-3
MEAN_MOTION_DOT = .1559E-4
MEAN_MOTION_DDOT = 0

CCSDS_OMM_VERS = 2.0
CREATION_DATE  = 
ORIGINATOR     = 

OBJECT_NAME    = SL-8 R/B
OBJECT_ID      = 1992-008B
CENTER_NAME    = EARTH
REF_FRAME      = TEME
TIME_SYSTEM    = UTC
MEAN_ELEMENT_THEORY = SGP/SGP4

EPOCH          = 2026-01-07T20:32:37.044384
MEAN_MOTION    = 13.75965192
ECCENTRICITY   = .0033661
INCLINATION    = 82.9286
RA_OF_ASC_NODE = 313.0224
ARG_OF_PERICENTER = 306.2211
MEAN_ANOMALY   = 106.8419

EPHEMERIS_TYPE = 0
CLASSIFICATION_TYPE = U
NORAD_CAT_ID   = 21876
ELEMENT_SET_NO = 999
REV_AT_EPOCH   = 70105
BSTAR          = .1138E-3
MEAN_MOTION_DOT = .126E-5
MEAN_MOTION_DDOT = 0

CCSDS_OMM_VERS = 2.0
CREATION_DATE  = 
ORIGINATOR     = 

OBJECT_NAME    = SL-8 R/B
OBJECT_ID      = 1992-020B
CENTER_NAME    = EARTH
REF_FRAME      = TEME
TIME_SYSTEM    = UTC
MEAN_ELEMENT_THEORY = SGP/SGP4

EPOCH          = 2026-01-07T19:10:42.087936
MEAN_MOTION    = 13.75535469
ECCENTRICITY   = .0030166
INCLINATION    = 82.9291
RA_OF_ASC_NODE = 198.9655
ARG_OF_PERICENTER = 107.1430
MEAN_ANOMALY   = 263.7740

EPHEMERIS_TYPE = 0
CLASSIFICATION_TYPE = U
NORAD_CAT_ID   = 21938
ELEMENT_SET_NO = 999
REV_AT_EPOCH   = 69276
BSTAR          = .15244E-3
MEAN_MOTION_DOT = .163E-5
MEAN_MOTION_DDOT = 0

CCSDS_OMM_VERS = 2.0
CREATION_DATE  = 
ORIGINATOR     = 

OBJECT_NAME    = USA 81
OBJECT_ID      = 1992-023A
CENTER_NAME    = EARTH
REF_FRAME      = TEME
TIME_SYSTEM    = UTC
MEAN_ELEMENT_THEORY = SGP/SGP4

EPOCH          = 2026-01-07T19:29:31.504416
MEAN_MOTION    = 14.32339518
ECCENTRICITY   = .0001326
INCLINATION    = 85.0094
RA_OF_ASC_NODE = 166.5398
ARG_OF_PERICENTER = 114.8367
MEAN_ANOMALY   = 245.2963

EPHEMERIS_TYPE = 0
CLASSIFICATION_TYPE = U
NORAD_CAT_ID   = 21949
ELEMENT_SET_NO = 999
REV_AT_EPOCH   = 8607
BSTAR          = .85106E-4
MEAN_MOTION_DOT = .25E-5
MEAN_MOTION_DDOT = 0

CCSDS_OMM_VERS = 2.0
CREATION_DATE  = 
ORIGINATOR     = 

OBJECT_NAME    = COSMOS 2219
OBJECT_ID      = 1992-076A
CENTER_NAME    = EARTH
REF_FRAME      = TEME
TIME_SYSTEM    = UTC
MEAN_ELEMENT_THEORY = SGP/SGP4

EPOCH          = 2026-01-07T19:51:21.614400
MEAN_MOTION    = 14.14079520
ECCENTRICITY   = .0020302
INCLINATION    = 71.0611
RA_OF_ASC_NODE = 145.2992
ARG_OF_PERICENTER = 290.8727
MEAN_ANOMALY   = 69.0222

EPHEMERIS_TYPE = 0
CLASSIFICATION_TYPE = U
NORAD_CAT_ID   = 22219
ELEMENT_SET_NO = 999
REV_AT_EPOCH   = 70977
BSTAR          = .13124E-3
MEAN_MOTION_DOT = .203E-5
MEAN_MOTION_DDOT = 0

CCSDS_OMM_VERS = 2.0
CREATION_DATE  = 
ORIGINATOR     = 

OBJECT_NAME    = SL-16 R/B
OBJECT_ID      = 1992-076B
CENTER_NAME    = EARTH
REF_FRAME      = TEME
TIME_SYSTEM    = UTC
MEAN_ELEMENT_THEORY = SGP/SGP4

EPOCH          = 2026-01-07T20:10:19.201728
MEAN_MOTION    = 14.16845949
ECCENTRICITY   = .0013434
INCLINATION    = 71.0013
RA_OF_ASC_NODE = 316.5504
ARG_OF_PERICENTER = 197.9743
MEAN_ANOMALY   = 228.9515

EPHEMERIS_TYPE = 0
CLASSIFICATION_TYPE = U
NORAD_CAT_ID   = 22220
ELEMENT_SET_NO = 999
REV_AT_EPOCH   = 71321
BSTAR          = .97012E-4
MEAN_MOTION_DOT = .147E-5
MEAN_MOTION_DDOT = 0

CCSDS_OMM_VERS = 2.0
CREATION_DATE  = 
ORIGINATOR     = 

OBJECT_NAME    = COSMOS 2221
OBJECT_ID      = 1992-080A
CENTER_NAME    = EARTH
REF_FRAME      = TEME
TIME_SYSTEM    = UTC
MEAN_ELEMENT_THEORY = SGP/SGP4

EPOCH          = 2026-01-07T10:31:29.425728
MEAN_MOTION    = 14.95894676
ECCENTRICITY   = .0015825
INCLINATION    = 82.5055
RA_OF_ASC_NODE = 337.7245
ARG_OF_PERICENTER = 43.7336
MEAN_ANOMALY   = 316.5136

EPHEMERIS_TYPE = 0
CLASSIFICATION_TYPE = U
NORAD_CAT_ID   = 22236
ELEMENT_SET_NO = 999
REV_AT_EPOCH   = 77163
BSTAR          = .2154E-3
MEAN_MOTION_DOT = .244E-4
MEAN_MOTION_DDOT = 0

CCSDS_OMM_VERS = 2.0
CREATION_DATE  = 
ORIGINATOR     = 

OBJECT_NAME    = SL-16 R/B
OBJECT_ID      = 1992-093B
CENTER_NAME    = EARTH
REF_FRAME      = TEME
TIME_SYSTEM    = UTC
MEAN_ELEMENT_THEORY = SGP/SGP4

EPOCH          = 2026-01-07T14:37:51.231936
MEAN_MOTION    = 14.15433882
ECCENTRICITY   = .0003245
INCLINATION    = 71.0213
RA_OF_ASC_NODE = 132.4909
ARG_OF_PERICENTER = 7.5418
MEAN_ANOMALY   = 352.5753

EPHEMERIS_TYPE = 0
CLASSIFICATION_TYPE = U
NORAD_CAT_ID   = 22285
ELEMENT_SET_NO = 999
REV_AT_EPOCH   = 70451
BSTAR          = .25669E-4
MEAN_MOTION_DOT = .3E-7
MEAN_MOTION_DDOT = 0

CCSDS_OMM_VERS = 2.0
CREATION_DATE  = 
ORIGINATOR     = 

OBJECT_NAME    = COSMOS 2228
OBJECT_ID      = 1992-094A
CENTER_NAME    = EARTH
REF_FRAME      = TEME
TIME_SYSTEM    = UTC
MEAN_ELEMENT_THEORY = SGP/SGP4

EPOCH          = 2026-01-07T19:53:56.113152
MEAN_MOTION    = 14.96881042
ECCENTRICITY   = .0018912
INCLINATION    = 82.5193
RA_OF_ASC_NODE = 295.5720
ARG_OF_PERICENTER = 142.1333
MEAN_ANOMALY   = 218.1224

EPHEMERIS_TYPE = 0
CLASSIFICATION_TYPE = U
NORAD_CAT_ID   = 22286
ELEMENT_SET_NO = 999
REV_AT_EPOCH   = 76695
BSTAR          = .19461E-3
MEAN_MOTION_DOT = .2266E-4
MEAN_MOTION_DDOT = 0

